OBJECT_NAME,OBJECT_ID,EPOCH,MEAN_MOTION,ECCENTRICITY,INCLINATION,RA_OF_ASC_NODE,ARG_OF_PERICENTER,MEAN_ANOMALY,EPHEMERIS_TYPE,CLASSIFICATION_TYPE,NORAD_CAT_ID,ELEMENT_SET_NO,REV_AT_EPOCH,BSTAR,MEAN_MOTION_DOT,MEAN_MOTION_DDOT
CHUANGXIN 1-02 (CX-1-02),2008-056B,2026-07-05T06:40:08.137344,14.30157167,.00155313,98.6125,212.3638,87.3592,272.9368,0,U,33434,999,92120,.71601013E-4,.142E-5,0
STARS (KUKAI),2009-002G,2026-07-04T19:29:43.794816,14.95883529,.00102762,98.1559,133.8416,108.0786,252.1554,0,U,33498,999,94111,.65662659E-3,.7292E-4,0
KKS-1 (KISEKI),2009-002H,2026-07-04T17:31:20.436960,14.83172947,.00066587,98.1181,108.4502,226.6782,133.3877,0,U,33499,999,93879,.24872581E-3,.1975E-4,0
UK-DMC 2,2009-041C,2026-07-05T07:48:42.723936,14.76082620,.00013164,97.8864,320.8505,100.2862,259.8497,0,U,35683,999,90924,.99021067E-4,.633E-5,0
OCEANSAT-2,2009-051A,2026-07-05T06:51:07.606944,13.99658298,.00166704,98.2318,171.3303,182.2971,177.8122,0,U,35931,999,88186,-.11156688E-3,-.201E-5,0
SWISSCUBE,2009-051B,2026-07-04T11:28:26.837760,14.62517748,.00072179,98.4021,93.6669,148.5860,211.5774,0,U,35932,999,89168,.31098137E-3,.1528E-4,0
BEESAT-1,2009-051C,2026-07-04T16:50:44.318976,14.61750705,.00054414,98.3947,93.4931,158.6227,201.5202,0,U,35933,999,89174,.24485179E-3,.1172E-4,0
ITUPSAT1,2009-051E,2026-07-04T16:59:43.323648,14.60469280,.00073167,98.4031,92.6727,174.2685,185.8600,0,U,35935,999,89129,.2547061E-3,.1186E-4,0
DMSP 5D-3 F18 (USA 210),2009-057A,2026-07-05T04:09:58.748832,14.14907301,.00106318,98.9047,166.9043,194.1406,165.9471,0,U,35951,999,86213,.17846201E-3,.3E-5,0
PROBA-2,2009-059B,2026-07-04T23:37:43.949280,14.54870751,.00123411,98.2456,9.0909,221.6439,138.3819,0,U,36037,999,88411,.74882749E-4,.276E-5,0
YAOGAN-7,2009-069A,2026-07-04T10:04:25.391712,14.78027757,.00242897,98.0049,71.1787,347.1078,12.9509,0,U,36110,999,89217,.89957282E-4,.599E-5,0
XIWANG-1 (HOPE-1),2009-072B,2026-07-05T06:08:10.191264,13.16438328,.00072662,100.4037,139.8001,187.7051,172.3951,0,U,36122,999,79538,-.63099577E-3,-.285E-5,0
COSMOS 2463,2010-017A,2026-07-04T13:44:35.566368,13.71666780,.00375845,82.9591,236.9328,82.3512,85.4573,0,U,36519,999,81031,.40907749E-4,.53E-6,0
CARTOSAT-2B,2010-035A,2026-07-05T06:32:08.688192,14.78607360,.0012262,97.9938,236.7063,127.9443,232.2878,0,U,36795,999,86252,.72671929E-4,.48E-5,0
TISAT 1,2010-035E,2026-07-04T07:04:38.693856,15.32381693,.00036347,98.0712,133.3699,140.6786,219.4718,0,U,36799,999,87032,.96086611E-3,.30047E-3,0
YAOGAN-10,2010-038A,2026-07-05T08:04:42.229632,14.85410572,.00016169,97.8967,209.5965,86.8708,329.8715,0,U,36834,999,85990,.58091283E-3,.4952E-4,0
SHIJIAN-6 04B (SJ-6 04B),2010-051B,2026-07-05T07:24:56.482848,14.99374056,.00069022,97.8732,191.9111,246.7079,113.3417,0,U,37180,999,85839,.16489162E-3,.1956E-4,0
FENGYUN 3B,2010-059A,2026-07-05T06:43:28.957728,14.14846680,.00228502,98.9605,232.3708,133.5703,358.3454,0,U,37214,999,80998,.23375778E-3,.407E-5,0
COSMO-SKYMED 4,2010-060A,2026-07-05T08:01:00.479712,14.82159994,.00014598,97.8890,9.6701,86.8558,273.2823,0,U,37216,999,84725,.67635578E-4,.486E-5,0
O/OREOS (USA 219),2010-062C,2026-07-05T00:13:53.397120,14.93824417,.00133606,71.9706,39.9659,25.4011,334.7814,0,U,37224,999,11930,.32831656E-3,.3431E-4,0
RESOURCESAT-2,2011-015A,2026-07-05T05:56:48.813216,14.21604608,.00109971,98.7636,253.5642,199.5943,160.4813,0,U,37387,999,78874,.82915391E-4,.138E-5,0
YOUTHSAT,2011-015B,2026-07-04T17:23:03.776928,14.25637882,.00133207,98.3693,158.9885,292.8828,240.5477,0,U,37388,999,79013,.13003516E-3,.267E-5,0
APRIZESAT 6,2011-044F,2026-07-04T16:38:07.867968,14.76945681,.00438671,98.2348,96.5492,31.5223,26.4833,0,U,37793,999,79973,.16785903E-3,.1144E-4,0
JUGNU,2011-058B,2026-07-05T05:27:39.707424,14.13781436,.00183409,19.9587,198.8255,275.6943,166.0732,0,U,37839,999,76158,.86431771E-4,.433E-5,0
SRMSAT,2011-058D,2026-07-04T16:11:13.217856,14.11579530,.00118514,19.9730,313.6268,36.6009,351.4175,0,U,37841,999,76029,.85792093E-4,.423E-5,0
